start=new Date('2022-10-25T00:00:00.000Z').valueOf();
sats=[{"GP_ID":"216074804","MEAN_ELEMENT_THEORY":"SGP4","CLASSIFICATION_TYPE":"U","REF_FRAME":"TEME","SEMIMAJOR_AXIS":"6918.044","TIME_SYSTEM":"UTC","MEAN_ANOMALY":"175.5143","BSTAR":"0.00297570000000","CENTER_NAME":"EARTH","PERIAPSIS":"538.843","MEAN_MOTION":"15.08786631","EPHEMERIS_TYPE":"0","APOAPSIS":"540.974","REV_AT_EPOCH":"130","OBJECT_ID":"2022-086T","INCLINATION":"53.2162","TLE_LINE1":"1 53259U 22086T   22297.91667824  .00047319  00000-0  29757-2 0  9993","ECCENTRICITY":"0.00015400","LAUNCH_DATE":"2022-07-24","DECAY_DATE":null,"EPOCH":"2022-10-24T22:00:00.999936","PERIOD":"95.441","FILE":"3631857","ELEMENT_SET_NO":"999","RA_OF_ASC_NODE":"323.7486","SITE":"AFETR","TLE_LINE2":"2 53259  53.2162 323.7486 0001540  39.8196 175.5143 15.08786631  1309","COUNTRY_CODE":"US","RCS_SIZE":"LARGE","NORAD_CAT_ID":"53259","OBJECT_NAME":"STARLINK-4140","MEAN_MOTION_DOT":"0.00047319","ARG_OF_PERICENTER":"39.8196","MEAN_MOTION_DDOT":"0.0000000000000","OBJECT_TYPE":"PAYLOAD"},{"INCLINATION":"53.2152","ECCENTRICITY":"0.00015620","TLE_LINE1":"1 53260U 22086U   22297.91667824  .00044966  00000-0  28291-2 0  9992","DECAY_DATE":null,"LAUNCH_DATE":"2022-07-24","EPHEMERIS_TYPE":"0","MEAN_MOTION":"15.08792826","REV_AT_EPOCH":"130","OBJECT_ID":"2022-086U","APOAPSIS":"540.970","CENTER_NAME":"EARTH","BSTAR":"0.00282910000000","PERIAPSIS":"538.809","GP_ID":"216073661","CLASSIFICATION_TYPE":"U","MEAN_ELEMENT_THEORY":"SGP4","MEAN_ANOMALY":"119.5631","TIME_SYSTEM":"UTC","REF_FRAME":"TEME","SEMIMAJOR_AXIS":"6918.025","ARG_OF_PERICENTER":"60.9424","MEAN_MOTION_DDOT":"0.0000000000000","OBJECT_TYPE":"PAYLOAD","COUNTRY_CODE":"US","OBJECT_NAME":"STARLINK-4136","NORAD_CAT_ID":"53260","RCS_SIZE":"LARGE","MEAN_MOTION_DOT":"0.00044966","SITE":"AFETR","TLE_LINE2":"2 53260  53.2152 323.7645 0001562  60.9424 119.5631 15.08792826  1303","EPOCH":"2022-10-24T22:00:00.999936","FILE":"3631857","PERIOD":"95.441","RA_OF_ASC_NODE":"323.7645","ELEMENT_SET_NO":"999"},{"REV_AT_EPOCH":"130","OBJECT_ID":"2022-086V","APOAPSIS":"541.034","EPHEMERIS_TYPE":"0","MEAN_MOTION":"15.08758298","DECAY_DATE":null,"LAUNCH_DATE":"2022-07-24","INCLINATION":"53.2158","ECCENTRICITY":"0.00015010","TLE_LINE1":"1 53261U 22086V   22297.91667824  .00091693  00000-0  57179-2 0  9999","CLASSIFICATION_TYPE":"U","MEAN_ELEMENT_THEORY":"SGP4","MEAN_ANOMALY":"199.8603","TIME_SYSTEM":"UTC","REF_FRAME":"TEME","SEMIMAJOR_AXIS":"6918.130","GP_ID":"216074405","PERIAPSIS":"538.957","CENTER_NAME":"EARTH","BSTAR":"0.00571790000000","NORAD_CAT_ID":"53261","OBJECT_NAME":"STARLINK-4062","RCS_SIZE":"LARGE","MEAN_MOTION_DOT":"0.00091693","COUNTRY_CODE":"US","OBJECT_TYPE":"PAYLOAD","ARG_OF_PERICENTER":"60.6415","MEAN_MOTION_DDOT":"0.0000000000000","RA_OF_ASC_NODE":"323.7473","ELEMENT_SET_NO":"999","EPOCH":"2022-10-24T22:00:00.999936","FILE":"3631857","PERIOD":"95.443","SITE":"AFETR","TLE_LINE2":"2 53261  53.2158 323.7473 0001501  60.6415 199.8603 15.08758298  1304"},{"MEAN_MOTION_DOT":"0.00046520","RCS_SIZE":"LARGE","OBJECT_NAME":"STARLINK-4085","NORAD_CAT_ID":"53262","COUNTRY_CODE":"US","OBJECT_TYPE":"PAYLOAD","MEAN_MOTION_DDOT":"0.0000000000000","ARG_OF_PERICENTER":"55.4422","ELEMENT_SET_NO":"999","RA_OF_ASC_NODE":"323.7505","PERIOD":"95.440","FILE":"3631857","EPOCH":"2022-10-24T22:00:00.999936","TLE_LINE2":"2 53262  53.2157 323.7505 0001604  55.4422 165.0908 15.08798795  1303","SITE":"AFETR","APOAPSIS":"540.981","OBJECT_ID":"2022-086W","REV_AT_EPOCH":"130","MEAN_MOTION":"15.08798795","EPHEMERIS_TYPE":"0","LAUNCH_DATE":"2022-07-24","DECAY_DATE":null,"TLE_LINE1":"1 53262U 22086W   22297.91667824  .00046520  00000-0  29251-2 0  9999","ECCENTRICITY":"0.00016040","INCLINATION":"53.2157","REF_FRAME":"TEME","SEMIMAJOR_AXIS":"6918.006","MEAN_ANOMALY":"165.0908","TIME_SYSTEM":"UTC","MEAN_ELEMENT_THEORY":"SGP4","CLASSIFICATION_TYPE":"U","GP_ID":"216073824","PERIAPSIS":"538.762","BSTAR":"0.00292510000000","CENTER_NAME":"EARTH"},{"CENTER_NAME":"EARTH","BSTAR":"0.00304410000000","PERIAPSIS":"538.705","GP_ID":"216074570","CLASSIFICATION_TYPE":"U","MEAN_ELEMENT_THEORY":"SGP4","TIME_SYSTEM":"UTC","MEAN_ANOMALY":"236.3455","REF_FRAME":"TEME","SEMIMAJOR_AXIS":"6918.021","INCLINATION":"53.2160","ECCENTRICITY":"0.00017070","TLE_LINE1":"1 53263U 22086X   22297.91667824  .00048431  00000-0  30441-2 0  9996","LAUNCH_DATE":"2022-07-24","DECAY_DATE":null,"EPHEMERIS_TYPE":"0","MEAN_MOTION":"15.08794039","REV_AT_EPOCH":"130","OBJECT_ID":"2022-086X","APOAPSIS":"541.067","SITE":"AFETR","TLE_LINE2":"2 53263  53.2160 323.7479 0001707  44.1804 236.3455 15.08794039  1307","EPOCH":"2022-10-24T22:00:00.999936","FILE":"3631857","PERIOD":"95.440","RA_OF_ASC_NODE":"323.7479","ELEMENT_SET_NO":"999","ARG_OF_PERICENTER":"44.1804","MEAN_MOTION_DDOT":"0.0000000000000","OBJECT_TYPE":"PAYLOAD","COUNTRY_CODE":"US","NORAD_CAT_ID":"53263","OBJECT_NAME":"STARLINK-4130","RCS_SIZE":"LARGE","MEAN_MOTION_DOT":"0.00048431"},{"CENTER_NAME":"EARTH","BSTAR":"0.00297510000000","PERIAPSIS":"538.799","GP_ID":"216074079","CLASSIFICATION_TYPE":"U","MEAN_ELEMENT_THEORY":"SGP4","MEAN_ANOMALY":"173.8893","TIME_SYSTEM":"UTC","REF_FRAME":"TEME","SEMIMAJOR_AXIS":"6918.045","INCLINATION":"53.2159","ECCENTRICITY":"0.00016070","TLE_LINE1":"1 53264U 22086Y   22297.91667824  .00047309  00000-0  29751-2 0  9992","DECAY_DATE":null,"LAUNCH_DATE":"2022-07-24","EPHEMERIS_TYPE":"0","MEAN_MOTION":"15.08785990","OBJECT_ID":"2022-086Y","REV_AT_EPOCH":"130","APOAPSIS":"541.022","SITE":"AFETR","TLE_LINE2":"2 53264  53.2159 323.7472 0001607  66.6203 173.8893 15.08785990  1307","EPOCH":"2022-10-24T22:00:00.999936","FILE":"3631857","PERIOD":"95.441","RA_OF_ASC_NODE":"323.7472","ELEMENT_SET_NO":"999","ARG_OF_PERICENTER":"66.6203","MEAN_MOTION_DDOT":"0.0000000000000","OBJECT_TYPE":"PAYLOAD","COUNTRY_CODE":"US","NORAD_CAT_ID":"53264","OBJECT_NAME":"STARLINK-3950","RCS_SIZE":"LARGE","MEAN_MOTION_DOT":"0.00047309"},{"PERIAPSIS":"538.787","BSTAR":"0.00559090000000","CENTER_NAME":"EARTH","REF_FRAME":"TEME","SEMIMAJOR_AXIS":"6918.090","TIME_SYSTEM":"UTC","MEAN_ANOMALY":"275.2549","MEAN_ELEMENT_THEORY":"SGP4","CLASSIFICATION_TYPE":"U","GP_ID":"216073988","DECAY_DATE":null,"LAUNCH_DATE":"2022-07-24","TLE_LINE1":"1 53265U 22086Z   22297.91667824  .00089656  00000-0  55909-2 0  9998","ECCENTRICITY":"0.00016890","INCLINATION":"53.2156","APOAPSIS":"541.123","OBJECT_ID":"2022-086Z","REV_AT_EPOCH":"130","MEAN_MOTION":"15.08771423","EPHEMERIS_TYPE":"0","TLE_LINE2":"2 53265  53.2156 323.7478 0001689  45.2469 275.2549 15.08771423  1309","SITE":"AFETR","ELEMENT_SET_NO":"999","RA_OF_ASC_NODE":"323.7478","PERIOD":"95.442","FILE":"3631857","EPOCH":"2022-10-24T22:00:00.999936","OBJECT_TYPE":"PAYLOAD","MEAN_MOTION_DDOT":"0.0000000000000","ARG_OF_PERICENTER":"45.2469","MEAN_MOTION_DOT":"0.00089656","RCS_SIZE":"LARGE","NORAD_CAT_ID":"53265","OBJECT_NAME":"STARLINK-4097","COUNTRY_CODE":"US"},{"SITE":"AFETR","TLE_LINE2":"2 53266  53.2158 323.3772 0001632  56.9674 336.4262 15.08719715 14942","EPOCH":"2022-10-25T00:00:00.999648","PERIOD":"95.445","FILE":"3631764","ELEMENT_SET_NO":"999","RA_OF_ASC_NODE":"323.3772","ARG_OF_PERICENTER":"56.9674","MEAN_MOTION_DDOT":"0.0000000000000","OBJECT_TYPE":"PAYLOAD","COUNTRY_CODE":"US","RCS_SIZE":"LARGE","OBJECT_NAME":"STARLINK-4058","NORAD_CAT_ID":"53266","MEAN_MOTION_DOT":"0.00140787","BSTAR":"0.00871840000000","CENTER_NAME":"EARTH","PERIAPSIS":"538.984","GP_ID":"216047029","MEAN_ELEMENT_THEORY":"SGP4","CLASSIFICATION_TYPE":"U","SEMIMAJOR_AXIS":"6918.248","REF_FRAME":"TEME","TIME_SYSTEM":"UTC","MEAN_ANOMALY":"336.4262","INCLINATION":"53.2158","TLE_LINE1":"1 53266U 22086AA  22298.00001157  .00140787  00000-0  87184-2 0  9994","ECCENTRICITY":"0.00016320","LAUNCH_DATE":"2022-07-24","DECAY_DATE":null,"MEAN_MOTION":"15.08719715","EPHEMERIS_TYPE":"0","APOAPSIS":"541.242","OBJECT_ID":"2022-086AA","REV_AT_EPOCH":"1494"},{"MEAN_MOTION_DOT":"0.00087922","OBJECT_NAME":"STARLINK-4060","NORAD_CAT_ID":"53267","RCS_SIZE":"LARGE","COUNTRY_CODE":"US","OBJECT_TYPE":"PAYLOAD","MEAN_MOTION_DDOT":"0.0000000000000","ARG_OF_PERICENTER":"44.5432","RA_OF_ASC_NODE":"323.7531","ELEMENT_SET_NO":"999","FILE":"3631857","PERIOD":"95.442","EPOCH":"2022-10-24T22:00:00.999936","TLE_LINE2":"2 53267  53.2177 323.7531 0001643  44.5432 315.9663 15.08769636  1319","SITE":"AFETR","REV_AT_EPOCH":"131","OBJECT_ID":"2022-086AB","APOAPSIS":"541.097","EPHEMERIS_TYPE":"0","MEAN_MOTION":"15.08769636","LAUNCH_DATE":"2022-07-24","DECAY_DATE":null,"ECCENTRICITY":"0.00016430","TLE_LINE1":"1 53267U 22086AB  22297.91667824  .00087922  00000-0  54847-2 0  9994","INCLINATION":"53.2177","TIME_SYSTEM":"UTC","MEAN_ANOMALY":"315.9663","SEMIMAJOR_AXIS":"6918.095","REF_FRAME":"TEME","CLASSIFICATION_TYPE":"U","MEAN_ELEMENT_THEORY":"SGP4","GP_ID":"216074805","PERIAPSIS":"538.824","CENTER_NAME":"EARTH","BSTAR":"0.00548470000000"},{"RA_OF_ASC_NODE":"323.7517","ELEMENT_SET_NO":"999","FILE":"3631857","PERIOD":"95.441","EPOCH":"2022-10-24T22:00:00.999936","TLE_LINE2":"2 53268  53.2167 323.7517 0001260  60.3290 280.1719 15.08778243  1304","SITE":"AFETR","MEAN_MOTION_DOT":"0.00050759","NORAD_CAT_ID":"53268","OBJECT_NAME":"STARLINK-4109","RCS_SIZE":"LARGE","COUNTRY_CODE":"US","OBJECT_TYPE":"PAYLOAD","MEAN_MOTION_DDOT":"0.0000000000000","ARG_OF_PERICENTER":"60.3290","TIME_SYSTEM":"UTC","MEAN_ANOMALY":"280.1719","SEMIMAJOR_AXIS":"6918.069","REF_FRAME":"TEME","CLASSIFICATION_TYPE":"U","MEAN_ELEMENT_THEORY":"SGP4","GP_ID":"216073662","PERIAPSIS":"539.062","CENTER_NAME":"EARTH","BSTAR":"0.00318990000000","REV_AT_EPOCH":"130","OBJECT_ID":"2022-086AC","APOAPSIS":"540.806","EPHEMERIS_TYPE":"0","MEAN_MOTION":"15.08778243","LAUNCH_DATE":"2022-07-24","DECAY_DATE":null,"ECCENTRICITY":"0.00012600","TLE_LINE1":"1 53268U 22086AC  22297.91667824  .00050759  00000-0  31899-2 0  9995","INCLINATION":"53.2167"}];
